FLOCK 4H-21             
1 66724U 25276BL  25358.79153602  .00011562  00000+0  56522-3 0  9990
2 66724  97.4384  70.3697 0002864 161.2337 198.9003 15.18381280  3209
FLOCK 4H-22             
1 66725U 25276BM  25358.80599685  .00006409  00000+0  32288-3 0  9995
2 66725  97.4373  70.3455 0001509 278.8831  81.2232 15.17514095  3950
FLOCK 4H-23             
1 66726U 25276BN  25358.66668980  .00054338  00000+0  27168-2 0  9999
2 66726  97.4440  70.2245 0003565 232.7388  65.5049 15.17231684  3357
FLOCK 4H-24             
1 66727U 25276BP  25358.80811096  .00005965  00000+0  30220-3 0  9990
2 66727  97.4437  70.3707 0002870 252.5486 107.5434 15.17348498  3958
FLOCK 4H-25             
1 66728U 25276BQ  25358.79289844  .00005809  00000+0  28704-3 0  9990
2 66728  97.4394  70.3733 0001739 115.6706 244.4708 15.18234896  3230
FLOCK 4H-26             
1 66729U 25276BR  25358.81150523  .00007197  00000+0  36564-3 0  9990
2 66729  97.4390  70.3476 0003686 251.4831 108.6002 15.17172639  3954
FLOCK 4H-27             
1 66730U 25276BS  25358.26788661  .00010988  00000+0  54170-3 0  9996
2 66730  97.4370  69.8434 0001322 129.2897 230.8455 15.18104899  3875
FLOCK 4H-28             
1 66731U 25276BT  25358.81121022  .00015432  00000+0  77978-3 0  9990
2 66731  97.4378  70.3439 0003074 254.7297 105.3597 15.17156182  3953
FLOCK 4H-29             
1 66732U 25276BU  25357.16008232  .00038183  00000+0  19114-2 0  9990
2 66732  97.4392  68.7307 0002088 236.6345 123.4689 15.17286901  3701
FLOCK 4H-30             
1 66733U 25276BV  25358.33336806 -.00050319  00000+0 -25413-2 0  9998
2 66733  97.4432  69.8976 0003244 258.0126  20.4559 15.17292259  3302
FLOCK 4H-31             
1 66734U 25276BW  25358.33336806 -.00053880  00000+0 -27263-2 0  9990
2 66734  97.4368  69.8732 0002752 268.1350  10.7747 15.17247903  3302
FLOCK 4H-32             
1 66735U 25276BX  25358.15078238  .00010290  00000+0  52011-3 0  9999
2 66735  97.4424  69.7134 0003583 254.0895 105.9944 15.17243922  3855
