CCSDS_OMM_VERS = 2.0
CREATION_DATE  = 
ORIGINATOR     = 

OBJECT_NAME    = FLOCK 4H-21
OBJECT_ID      = 2025-276BL
CENTER_NAME    = EARTH
REF_FRAME      = TEME
TIME_SYSTEM    = UTC
MEAN_ELEMENT_THEORY = SGP/SGP4

EPOCH          = 2025-12-24T18:59:48.712128
MEAN_MOTION    = 15.18381280
ECCENTRICITY   = .0002864
INCLINATION    = 97.4384
RA_OF_ASC_NODE = 70.3697
ARG_OF_PERICENTER = 161.2337
MEAN_ANOMALY   = 198.9003

EPHEMERIS_TYPE = 0
CLASSIFICATION_TYPE = U
NORAD_CAT_ID   = 66724
ELEMENT_SET_NO = 999
REV_AT_EPOCH   = 320
BSTAR          = .56522E-3
MEAN_MOTION_DOT = .11562E-3
MEAN_MOTION_DDOT = 0

CCSDS_OMM_VERS = 2.0
CREATION_DATE  = 
ORIGINATOR     = 

OBJECT_NAME    = FLOCK 4H-22
OBJECT_ID      = 2025-276BM
CENTER_NAME    = EARTH
REF_FRAME      = TEME
TIME_SYSTEM    = UTC
MEAN_ELEMENT_THEORY = SGP/SGP4

EPOCH          = 2025-12-24T19:20:38.127840
MEAN_MOTION    = 15.17514095
ECCENTRICITY   = .0001509
INCLINATION    = 97.4373
RA_OF_ASC_NODE = 70.3455
ARG_OF_PERICENTER = 278.8831
MEAN_ANOMALY   = 81.2232

EPHEMERIS_TYPE = 0
CLASSIFICATION_TYPE = U
NORAD_CAT_ID   = 66725
ELEMENT_SET_NO = 999
REV_AT_EPOCH   = 395
BSTAR          = .32288E-3
MEAN_MOTION_DOT = .6409E-4
MEAN_MOTION_DDOT = 0

CCSDS_OMM_VERS = 2.0
CREATION_DATE  = 
ORIGINATOR     = 

OBJECT_NAME    = FLOCK 4H-23
OBJECT_ID      = 2025-276BN
CENTER_NAME    = EARTH
REF_FRAME      = TEME
TIME_SYSTEM    = UTC
MEAN_ELEMENT_THEORY = SGP/SGP4

EPOCH          = 2025-12-24T16:00:01.998720
MEAN_MOTION    = 15.17231684
ECCENTRICITY   = .0003565
INCLINATION    = 97.4440
RA_OF_ASC_NODE = 70.2245
ARG_OF_PERICENTER = 232.7388
MEAN_ANOMALY   = 65.5049

EPHEMERIS_TYPE = 0
CLASSIFICATION_TYPE = U
NORAD_CAT_ID   = 66726
ELEMENT_SET_NO = 999
REV_AT_EPOCH   = 335
BSTAR          = .27168E-2
MEAN_MOTION_DOT = .54338E-3
MEAN_MOTION_DDOT = 0

CCSDS_OMM_VERS = 2.0
CREATION_DATE  = 
ORIGINATOR     = 

OBJECT_NAME    = FLOCK 4H-24
OBJECT_ID      = 2025-276BP
CENTER_NAME    = EARTH
REF_FRAME      = TEME
TIME_SYSTEM    = UTC
MEAN_ELEMENT_THEORY = SGP/SGP4

EPOCH          = 2025-12-24T19:23:40.786944
MEAN_MOTION    = 15.17348498
ECCENTRICITY   = .000287
INCLINATION    = 97.4437
RA_OF_ASC_NODE = 70.3707
ARG_OF_PERICENTER = 252.5486
MEAN_ANOMALY   = 107.5434

EPHEMERIS_TYPE = 0
CLASSIFICATION_TYPE = U
NORAD_CAT_ID   = 66727
ELEMENT_SET_NO = 999
REV_AT_EPOCH   = 395
BSTAR          = .3022E-3
MEAN_MOTION_DOT = .5965E-4
MEAN_MOTION_DDOT = 0

CCSDS_OMM_VERS = 2.0
CREATION_DATE  = 
ORIGINATOR     = 

OBJECT_NAME    = FLOCK 4H-25
OBJECT_ID      = 2025-276BQ
CENTER_NAME    = EARTH
REF_FRAME      = TEME
TIME_SYSTEM    = UTC
MEAN_ELEMENT_THEORY = SGP/SGP4

EPOCH          = 2025-12-24T19:01:46.425216
MEAN_MOTION    = 15.18234896
ECCENTRICITY   = .0001739
INCLINATION    = 97.4394
RA_OF_ASC_NODE = 70.3733
ARG_OF_PERICENTER = 115.6706
MEAN_ANOMALY   = 244.4708

EPHEMERIS_TYPE = 0
CLASSIFICATION_TYPE = U
NORAD_CAT_ID   = 66728
ELEMENT_SET_NO = 999
REV_AT_EPOCH   = 323
BSTAR          = .28704E-3
MEAN_MOTION_DOT = .5809E-4
MEAN_MOTION_DDOT = 0

CCSDS_OMM_VERS = 2.0
CREATION_DATE  = 
ORIGINATOR     = 

OBJECT_NAME    = FLOCK 4H-26
OBJECT_ID      = 2025-276BR
CENTER_NAME    = EARTH
REF_FRAME      = TEME
TIME_SYSTEM    = UTC
MEAN_ELEMENT_THEORY = SGP/SGP4

EPOCH          = 2025-12-24T19:28:34.051872
MEAN_MOTION    = 15.17172639
ECCENTRICITY   = .0003686
INCLINATION    = 97.4390
RA_OF_ASC_NODE = 70.3476
ARG_OF_PERICENTER = 251.4831
MEAN_ANOMALY   = 108.6002

EPHEMERIS_TYPE = 0
CLASSIFICATION_TYPE = U
NORAD_CAT_ID   = 66729
ELEMENT_SET_NO = 999
REV_AT_EPOCH   = 395
BSTAR          = .36564E-3
MEAN_MOTION_DOT = .7197E-4
MEAN_MOTION_DDOT = 0

CCSDS_OMM_VERS = 2.0
CREATION_DATE  = 
ORIGINATOR     = 

OBJECT_NAME    = FLOCK 4H-27
OBJECT_ID      = 2025-276BS
CENTER_NAME    = EARTH
REF_FRAME      = TEME
TIME_SYSTEM    = UTC
MEAN_ELEMENT_THEORY = SGP/SGP4

EPOCH          = 2025-12-24T06:25:45.403104
MEAN_MOTION    = 15.18104899
ECCENTRICITY   = .00013229
INCLINATION    = 97.4370
RA_OF_ASC_NODE = 69.8434
ARG_OF_PERICENTER = 129.2897
MEAN_ANOMALY   = 230.8455

EPHEMERIS_TYPE = 0
CLASSIFICATION_TYPE = U
NORAD_CAT_ID   = 66730
ELEMENT_SET_NO = 999
REV_AT_EPOCH   = 387
BSTAR          = .54169796E-3
MEAN_MOTION_DOT = .10988E-3
MEAN_MOTION_DDOT = 0

CCSDS_OMM_VERS = 2.0
CREATION_DATE  = 
ORIGINATOR     = 

OBJECT_NAME    = FLOCK 4H-28
OBJECT_ID      = 2025-276BT
CENTER_NAME    = EARTH
REF_FRAME      = TEME
TIME_SYSTEM    = UTC
MEAN_ELEMENT_THEORY = SGP/SGP4

EPOCH          = 2025-12-24T19:28:08.563008
MEAN_MOTION    = 15.17156182
ECCENTRICITY   = .0003074
INCLINATION    = 97.4378
RA_OF_ASC_NODE = 70.3439
ARG_OF_PERICENTER = 254.7297
MEAN_ANOMALY   = 105.3597

EPHEMERIS_TYPE = 0
CLASSIFICATION_TYPE = U
NORAD_CAT_ID   = 66731
ELEMENT_SET_NO = 999
REV_AT_EPOCH   = 395
BSTAR          = .77978E-3
MEAN_MOTION_DOT = .15432E-3
MEAN_MOTION_DDOT = 0

CCSDS_OMM_VERS = 2.0
CREATION_DATE  = 
ORIGINATOR     = 

OBJECT_NAME    = FLOCK 4H-29
OBJECT_ID      = 2025-276BU
CENTER_NAME    = EARTH
REF_FRAME      = TEME
TIME_SYSTEM    = UTC
MEAN_ELEMENT_THEORY = SGP/SGP4

EPOCH          = 2025-12-23T03:50:31.112448
MEAN_MOTION    = 15.17286901
ECCENTRICITY   = .00020889
INCLINATION    = 97.4392
RA_OF_ASC_NODE = 68.7307
ARG_OF_PERICENTER = 236.6345
MEAN_ANOMALY   = 123.4689

EPHEMERIS_TYPE = 0
CLASSIFICATION_TYPE = U
NORAD_CAT_ID   = 66732
ELEMENT_SET_NO = 999
REV_AT_EPOCH   = 370
BSTAR          = .19114481E-2
MEAN_MOTION_DOT = .38183E-3
MEAN_MOTION_DDOT = 0

CCSDS_OMM_VERS = 2.0
CREATION_DATE  = 
ORIGINATOR     = 

OBJECT_NAME    = FLOCK 4H-30
OBJECT_ID      = 2025-276BV
CENTER_NAME    = EARTH
REF_FRAME      = TEME
TIME_SYSTEM    = UTC
MEAN_ELEMENT_THEORY = SGP/SGP4

EPOCH          = 2025-12-24T08:00:03.000384
MEAN_MOTION    = 15.17292259
ECCENTRICITY   = .00032441
INCLINATION    = 97.4432
RA_OF_ASC_NODE = 69.8976
ARG_OF_PERICENTER = 258.0126
MEAN_ANOMALY   = 20.4559

EPHEMERIS_TYPE = 0
CLASSIFICATION_TYPE = U
NORAD_CAT_ID   = 66733
ELEMENT_SET_NO = 999
REV_AT_EPOCH   = 330
BSTAR          = -.25412827E-2
MEAN_MOTION_DOT = -.50319E-3
MEAN_MOTION_DDOT = 0

CCSDS_OMM_VERS = 2.0
CREATION_DATE  = 
ORIGINATOR     = 

OBJECT_NAME    = FLOCK 4H-31
OBJECT_ID      = 2025-276BW
CENTER_NAME    = EARTH
REF_FRAME      = TEME
TIME_SYSTEM    = UTC
MEAN_ELEMENT_THEORY = SGP/SGP4

EPOCH          = 2025-12-24T08:00:03.000384
MEAN_MOTION    = 15.17247903
ECCENTRICITY   = .00027526
INCLINATION    = 97.4368
RA_OF_ASC_NODE = 69.8732
ARG_OF_PERICENTER = 268.1350
MEAN_ANOMALY   = 10.7747

EPHEMERIS_TYPE = 0
CLASSIFICATION_TYPE = U
NORAD_CAT_ID   = 66734
ELEMENT_SET_NO = 999
REV_AT_EPOCH   = 330
BSTAR          = -.2726258E-2
MEAN_MOTION_DOT = -.5388E-3
MEAN_MOTION_DDOT = 0

CCSDS_OMM_VERS = 2.0
CREATION_DATE  = 
ORIGINATOR     = 

OBJECT_NAME    = FLOCK 4H-32
OBJECT_ID      = 2025-276BX
CENTER_NAME    = EARTH
REF_FRAME      = TEME
TIME_SYSTEM    = UTC
MEAN_ELEMENT_THEORY = SGP/SGP4

EPOCH          = 2025-12-24T03:37:07.597632
MEAN_MOTION    = 15.17243922
ECCENTRICITY   = .00035838
INCLINATION    = 97.4424
RA_OF_ASC_NODE = 69.7134
ARG_OF_PERICENTER = 254.0895
MEAN_ANOMALY   = 105.9944

EPHEMERIS_TYPE = 0
CLASSIFICATION_TYPE = U
NORAD_CAT_ID   = 66735
ELEMENT_SET_NO = 999
REV_AT_EPOCH   = 385
BSTAR          = .52011068E-3
MEAN_MOTION_DOT = .1029E-3
MEAN_MOTION_DDOT = 0

